NORAD_CAT_ID,OBJECT_NAME,OBJECT_TYPE,EPOCH,MEAN_MOTION,ECCENTRICITY,INCLINATION,RA_OF_ASC_NODE,ARG_OF_PERICENTER,MEAN_ANOMALY,BSTAR,MEAN_MOTION_DOT,MEAN_MOTION_DDOT,TLE_LINE0,TLE_LINE1,TLE_LINE2,SEMIMAJOR_AXIS,PERIOD,APOGEE,PERIGEE,DECAYED
55929.0,STARLINK-5898,PAYLOAD,2023-08-25 01:58:21,14.98331781,0.0002927,70.0006,123.1607,269.7412,90.3412,-5.7112e-06,-1.61e-06,0.0,0 STARLINK-5898,1 55929U 23037R   23237.08219461 -.00000161  00000-0 -57112-5 0  9994,2 55929  70.0006 123.1607 0002927 269.7412  90.3412 14.98331781 24882,6950.187,96.107,574.087,570.018,0.0
55929.0,STARLINK-5898,PAYLOAD,2023-08-25 19:35:50,14.9832968,0.0002902,70.0005,121.3099,263.9454,96.1375,-5.5393e-06,-1.59e-06,0.0,0 STARLINK-5898,1 55929U 23037R   23237.81655539 -.00000159  00000-0 -55393-5 0  9991,2 55929  70.0005 121.3099 0002902 263.9454  96.1375 14.98329680 24653,6950.194,96.107,574.076,570.042,0.0
55929.0,STARLINK-5898,PAYLOAD,2023-08-26 02:00:22,14.98329687,0.0002923,70.0006,120.6367,265.7412,94.3413,-2.7416e-06,-1.26e-06,0.0,0 STARLINK-5898,1 55929U 23037R   23238.08359554 -.00000126  00000-0 -27416-5 0  9998,2 55929  70.0006 120.6367 0002923 265.7412  94.3413 14.98329687 25034,6950.194,96.107,574.09,570.027,0.0
55929.0,STARLINK-5898,PAYLOAD,2023-08-26 03:36:30,14.9833056,0.0002931,70.0006,120.4685,265.5295,94.5529,5.3898e-06,-2.9e-07,0.0,0 STARLINK-5898,1 55929U 23037R   23238.15035475 -.00000029  00000-0  53898-5 0  9993,2 55929  70.0006 120.4685 0002931 265.5295  94.5529 14.98330560 24706,6950.191,96.107,574.093,570.019,0.0
55929.0,STARLINK-5898,PAYLOAD,2023-08-26 21:13:59,14.98330995,0.0002969,70.0004,118.6168,267.0629,93.019,-9.3165e-07,-1.04e-06,0.0,0 STARLINK-5898,1 55929U 23037R   23238.88471441 -.00000104  00000-0 -93165-6 0  9997,2 55929  70.0004 118.6168 0002969 267.0629  93.0190 14.98330995 24810,6950.19,96.107,574.118,569.991,0.0
55929.0,STARLINK-5898,PAYLOAD,2023-08-27 02:02:23,14.98333139,0.0002949,70.0004,118.1121,267.1585,92.9237,2.4241e-05,1.96e-06,0.0,0 STARLINK-5898,1 55929U 23037R   23239.08499210  .00000196  00000-0  24241-4 0  9990,2 55929  70.0004 118.1121 0002949 267.1585  92.9237 14.98333139 25188,6950.183,96.107,574.098,569.999,0.0
55929.0,STARLINK-5898,PAYLOAD,2023-08-27 03:38:31,14.983346,0.0002975,70.0004,117.9438,268.3177,91.7642,3.4417e-05,3.18e-06,0.0,0 STARLINK-5898,1 55929U 23037R   23239.15175081  .00000318  00000-0  34417-4 0  9997,2 55929  70.0004 117.9438 0002975 268.3177  91.7642 14.98334600 24859,6950.179,96.107,574.111,569.976,0.0
55929.0,STARLINK-5898,PAYLOAD,2023-08-27 21:16:00,14.98328181,0.000296,70.0005,116.093,266.8201,93.2619,-6.6865e-07,-1.01e-06,0.0,0 STARLINK-5898,1 55929U 23037R   23239.88611546 -.00000101  00000-0 -66865-6 0  9994,2 55929  70.0005 116.0930 0002960 266.8201  93.2619 14.98328181 24962,6950.199,96.107,574.121,570.006,0.0
55929.0,STARLINK-5898,PAYLOAD,2023-08-28 08:28:56,14.98331389,0.0002878,70.0005,114.9141,268.0687,92.0143,-5.1655e-06,-1.55e-06,0.0,0 STARLINK-5898,1 55929U 23037R   23240.35343360 -.00000155  00000-0 -51655-5 0  9993,2 55929  70.0005 114.9141 0002878 268.0687  92.0143 14.98331389 25372,6950.189,96.107,574.054,570.053,0.0
55929.0,STARLINK-5898,PAYLOAD,2023-08-28 21:18:01,14.98330081,0.0002922,70.0003,113.5673,265.8671,94.2155,3.6601e-05,3.44e-06,0.0,0 STARLINK-5898,1 55929U 23037R   23240.88751225  .00000344  00000-0  36601-4 0  9995,2 55929  70.0003 113.5673 0002922 265.8671  94.2155 14.98330081 25110,6950.193,96.107,574.088,570.027,0.0
55929.0,STARLINK-5898,PAYLOAD,2023-08-29 02:06:24,14.98349314,0.0002698,70.0003,113.0623,265.8312,94.2539,-0.00026625,-3.27e-05,0.0,0 STARLINK-5898,1 55929U 23037R   23241.08778706 -.00003270  00000-0 -26625-3 0  9998,2 55929  70.0003 113.0623 0002698 265.8312  94.2539 14.98349314 25487,6950.133,96.106,573.873,570.123,0.0
55929.0,STARLINK-5898,PAYLOAD,2023-08-29 08:30:57,14.98331474,0.0002896,70.0004,112.3887,267.9766,92.1061,-2.7698e-05,-4.23e-06,0.0,0 STARLINK-5898,1 55929U 23037R   23241.35483252 -.00000423  00000-0 -27698-4 0  9996,2 55929  70.0004 112.3887 0002896 267.9766  92.1061 14.98331474 25528,6950.188,96.107,574.066,570.041,0.0
55929.0,STARLINK-5898,PAYLOAD,2023-08-29 19:43:54,14.98328064,0.000289,70.0002,111.2109,265.3731,94.7098,-1.1521e-05,-2.3e-06,0.0,0 STARLINK-5898,1 55929U 23037R   23241.82215417 -.00000230  00000-0 -11521-4 0  9998,2 55929  70.0002 111.2109 0002890 265.3731  94.7098 14.98328064 25258,6950.199,96.107,574.072,570.055,0.0
55929.0,STARLINK-5898,PAYLOAD,2023-08-30 16:33:38,14.98331482,0.0002913,70.0001,109.0231,265.1991,94.8835,4.7965e-06,-3.6e-07,0.0,0 STARLINK-5898,1 55929U 23037R   23242.69003129 -.00000036  00000-0  47965-5 0  9994,2 55929  70.0001 109.0231 0002913 265.1991  94.8835 14.98331482 25720,6950.188,96.107,574.078,570.029,0.0
55929.0,STARLINK-5898,PAYLOAD,2023-08-30 21:22:02,14.98333045,0.000314,70.0001,108.5186,267.0045,93.0755,6.7517e-06,-1.2e-07,0.0,0 STARLINK-5898,1 55929U 23037R   23242.89030995 -.00000012  00000-0  67517-5 0  9996,2 55929  70.0001 108.5186 0003140 267.0045  93.0755 14.98333045 25412,6950.183,96.107,574.231,569.866,0.0
55929.0,STARLINK-5898,PAYLOAD,2023-08-31 00:34:18,14.98333456,0.0003064,70.0,108.1817,267.2872,92.7936,1.1096e-05,3.9e-07,0.0,0 STARLINK-5898,1 55929U 23037R   23243.02382932  .00000039  00000-0  11096-4 0  9991,2 55929  70.0000 108.1817 0003064 267.2872  92.7936 14.98333456 25438,6950.182,96.107,574.177,569.918,0.0
55929.0,STARLINK-5898,PAYLOAD,2023-09-01 00:36:20,14.98329132,0.0002885,70.0002,105.6574,265.3853,94.6977,-1.5498e-05,-2.78e-06,0.0,0 STARLINK-5898,1 55929U 23037R   23244.02523240 -.00000278  00000-0 -15498-4 0  9998,2 55929  70.0002 105.6574 0002885 265.3853  94.6977 14.98329132 25926,6950.196,96.107,574.066,570.055,0.0
55929.0,STARLINK-5898,PAYLOAD,2023-09-01 08:37:00,14.98329339,0.0003228,69.9983,104.8144,268.678,91.4009,-6.7464e-07,-1.01e-06,0.0,0 STARLINK-5898,1 55929U 23037R   23244.35903103 -.00000101  00000-0 -67464-6 0  9991,2 55929  69.9983 104.8144 0003228 268.6780  91.4009 14.98329339 25630,6950.195,96.107,574.303,569.816,0.0
55929.0,STARLINK-5898,PAYLOAD,2023-09-01 21:26:04,14.9833469,0.0003052,69.9999,103.4678,268.2269,91.854,-1.7605e-06,-1.14e-06,0.0,0 STARLINK-5898,1 55929U 23037R   23244.89310812 -.00000114  00000-0 -17605-5 0  9994,2 55929  69.9999 103.4678 0003052 268.2269  91.8540 14.98334690 25716,6950.178,96.107,574.165,569.922,0.0
55929.0,STARLINK-5898,PAYLOAD,2023-09-02 02:14:28,14.98332287,0.0003014,70.0,102.9627,269.1914,90.8899,6.5768e-05,6.92e-06,0.0,0 STARLINK-5898,1 55929U 23037R   23245.09338756  .00000692  00000-0  65768-4 0  9995,2 55929  70.0000 102.9627 0003014 269.1914  90.8899 14.98332287 26082,6950.186,96.107,574.146,569.956,0.0
55929.0,STARLINK-5898,PAYLOAD,2023-09-02 16:39:41,14.98327991,0.000292,70.0005,101.4477,271.2259,88.8565,-1.6779e-05,-2.93e-06,0.0,0 STARLINK-5898,1 55929U 23037R   23245.69423242 -.00000293  00000-0 -16779-4 0  9993,2 55929  70.0005 101.4477 0002920 271.2259  88.8565 14.98327991 26178,6950.199,96.107,574.094,570.035,0.0
55929.0,STARLINK-5898,PAYLOAD,2023-09-02 21:28:05,14.98330573,0.0002926,70.0004,100.9428,271.0193,89.0631,1.4164e-05,7.6e-07,0.0,0 STARLINK-5898,1 55929U 23037R   23245.89450995  .00000076  00000-0  14164-4 0  9993,2 55929  70.0004 100.9428 0002926 271.0193  89.0631 14.98330573 25860,6950.191,96.107,574.09,570.022,0.0
55929.0,STARLINK-5898,PAYLOAD,2023-09-03 00:40:21,14.98331985,0.0002951,70.0002,100.6063,269.5074,90.5747,1.4642e-05,8.2e-07,0.0,0 STARLINK-5898,1 55929U 23037R   23246.02802878  .00000082  00000-0  14642-4 0  9998,2 55929  70.0002 100.6063 0002951 269.5074  90.5747 14.98331985 25883,6950.187,96.107,574.103,570.001,0.0
55929.0,STARLINK-5898,PAYLOAD,2023-09-03 18:17:50,14.98329872,0.0002889,70.0,98.7538,269.2373,90.8455,-8.0448e-06,-1.89e-06,0.0,0 STARLINK-5898,1 55929U 23037R   23246.76239044 -.00000189  00000-0 -80448-5 0  9996,2 55929  70.0000  98.7538 0002889 269.2373  90.8455 14.98329872 26336,6950.193,96.107,574.066,570.05,0.0
55929.0,STARLINK-5898,PAYLOAD,2023-09-04 07:06:55,14.98328879,0.0002895,70.0003,97.4076,272.0845,87.9982,-1.3349e-05,-2.52e-06,0.0,0 STARLINK-5898,1 55929U 23037R   23247.29647161 -.00000252  00000-0 -13349-4 0  9994,2 55929  70.0003  97.4076 0002895 272.0845  87.9982 14.98328879 26074,6950.196,96.107,574.073,570.049,0.0
55929.0,STARLINK-5898,PAYLOAD,2023-09-04 19:55:59,14.98326691,0.0002839,70.0002,96.0603,269.3506,90.7328,3.4368e-05,3.17e-06,0.0,0 STARLINK-5898,1 55929U 23037R   23247.83055198  .00000317  00000-0  34368-4 0  9991,2 55929  70.0002  96.0603 0002839 269.3506  90.7328 14.98326691 26497,6950.203,96.107,574.041,570.095,0.0
55929.0,STARLINK-5898,PAYLOAD,2023-09-05 13:33:28,14.98330621,0.0003006,70.0001,94.2097,271.3649,88.7166,3.2222e-05,2.91e-06,0.0,0 STARLINK-5898,1 55929U 23037R   23248.56490969  .00000291  00000-0  32222-4 0  9999,2 55929  70.0001  94.2097 0003006 271.3649  88.7166 14.98330621 26261,6950.191,96.107,574.145,569.967,0.0
55929.0,STARLINK-5898,PAYLOAD,2023-09-05 19:58:00,14.98334716,0.000299,70.0002,93.5365,269.4525,90.6291,7.5133e-05,8.04e-06,0.0,0 STARLINK-5898,1 55929U 23037R   23248.83194532  .00000804  00000-0  75133-4 0  9994,2 55929  70.0002  93.5365 0002990 269.4525  90.6291 14.98334716 26646,6950.178,96.107,574.121,569.965,0.0
55929.0,STARLINK-5898,PAYLOAD,2023-09-06 13:35:28,14.98334034,0.0002999,70.0003,91.6851,269.2019,90.8797,6.5519e-05,6.89e-06,0.0,0 STARLINK-5898,1 55929U 23037R   23249.56630389  .00000689  00000-0  65519-4 0  9998,2 55929  70.0003  91.6851 0002999 269.2019  90.8797 14.98334034 26412,6950.18,96.107,574.13,569.961,0.0
55929.0,STARLINK-5898,PAYLOAD,2023-09-06 16:47:45,14.983287,0.0003012,70.0002,91.3482,269.6246,90.4568,7.3282e-06,-6e-08,0.0,0 STARLINK-5898,1 55929U 23037R   23249.69982846 -.00000006  00000-0  73282-5 0  9991,2 55929  70.0002  91.3482 0003012 269.6246  90.4568 14.98328700 26775,6950.197,96.107,574.155,569.969,0.0
